{"type": "FeatureCollection", "features": [ {"type": "Feature", "properties": {"norad_id": 66608, "name": "STARLINK-36036", "group": "last-30-days", "lat": 27.018174693953707, "lon": -21.743124106802412, "alt_km": 411.32556437995026, "timestamp": "2025-12-12T22:42:11.306565+00:00", "meta": {"OBJECT_NAME": "STARLINK-36036", "OBJECT_ID": "2025-270W", "EPOCH": "2025-12-12T06:00:00.999648", "MEAN_MOTION": 15.50513108, "ECCENTRICITY": 0.00017603, "INCLINATION": 42.9997, "RA_OF_ASC_NODE": 195.5055, "ARG_OF_PERICENTER": 265.7481, "MEAN_ANOMALY": 302.8923, "EPHEMERIS_TYPE": 0, "CLASSIFICATION_TYPE": "U", "NORAD_CAT_ID": 66608, "ELEMENT_SET_NO": 999, "REV_AT_EPOCH": 416, "BSTAR": 0.0016644121, "MEAN_MOTION_DOT": 0.00098306, "MEAN_MOTION_DDOT": 0}, "tle": {"line1": "1 66608U 25270W   25346.25001157  .00098306  00000+0  16644-2 0  9991", "line2": "2 66608  42.9997 195.5055 0001760 265.7481 302.8923 15.50513108  4162"}}, "geometry": {"type": "Point", "coordinates": [-21.743124106802412, 27.018174693953707]}}, {"type": "Feature", "properties": {"norad_id": 66609, "name": "STARLINK-36034", "group": "last-30-days", "lat": 25.96018057218863, "lon": -20.06968908176152, "alt_km": 412.07731462957327, "timestamp": "2025-12-12T22:42:11.306575+00:00", "meta": {"OBJECT_NAME": "STARLINK-36034", "OBJECT_ID": "2025-270X", "EPOCH": "2025-12-12T06:00:00.999648", "MEAN_MOTION": 15.50619482, "ECCENTRICITY": 0.00019067, "INCLINATION": 42.9998, "RA_OF_ASC_NODE": 195.501, "ARG_OF_PERICENTER": 270.2473, "MEAN_ANOMALY": 300.2833, "EPHEMERIS_TYPE": 0, "CLASSIFICATION_TYPE": "U", "NORAD_CAT_ID": 66609, "ELEMENT_SET_NO": 999, "REV_AT_EPOCH": 416, "BSTAR": -0.0014729138, "MEAN_MOTION_DOT": -0.00085936, "MEAN_MOTION_DDOT": 0}, "tle": {"line1": "1 66609U 25270X   25346.25001157 -.00085936  00000+0 -14729-2 0  9991", "line2": "2 66609  42.9998 195.5010 0001906 270.2473 300.2833 15.50619482  4163"}}, "geometry": {"type": "Point", "coordinates": [-20.06968908176152, 25.96018057218863]}}, {"type": "Feature", "properties": {"norad_id": 66610, "name": "STARLINK-35680", "group": "last-30-days", "lat": 24.83587468603387, "lon": -18.356154085582922, "alt_km": 412.31478459461687, "timestamp": "2025-12-12T22:42:11.306586+00:00", "meta": {"OBJECT_NAME": "STARLINK-35680", "OBJECT_ID": "2025-270Y", "EPOCH": "2025-12-12T06:00:00.999648", "MEAN_MOTION": 15.5062224, "ECCENTRICITY": 0.00018968, "INCLINATION": 42.9999, "RA_OF_ASC_NODE": 195.4958, "ARG_OF_PERICENTER": 274.6075, "MEAN_ANOMALY": 297.8426, "EPHEMERIS_TYPE": 0, "CLASSIFICATION_TYPE": "U", "NORAD_CAT_ID": 66610, "ELEMENT_SET_NO": 999, "REV_AT_EPOCH": 443, "BSTAR": -0.0015911773, "MEAN_MOTION_DOT": -0.00092738, "MEAN_MOTION_DDOT": 0}, "tle": {"line1": "1 66610U 25270Y   25346.25001157 -.00092738  00000+0 -15912-2 0  9996", "line2": "2 66610  42.9999 195.4958 0001896 274.6075 297.8426 15.50622240  4435"}}, "geometry": {"type": "Point", "coordinates": [-18.356154085582922, 24.83587468603387]}}, {"type": "Feature", "properties": {"norad_id": 66611, "name": "STARLINK-35583", "group": "last-30-days", "lat": 23.695600825640692, "lon": -16.678766601221685, "alt_km": 412.4829898650896, "timestamp": "2025-12-12T22:42:11.306598+00:00", "meta": {"OBJECT_NAME": "STARLINK-35583", "OBJECT_ID": "2025-270Z", "EPOCH": "2025-12-12T06:00:00.999648", "MEAN_MOTION": 15.5063436, "ECCENTRICITY": 0.0001913, "INCLINATION": 42.9999, "RA_OF_ASC_NODE": 195.4906, "ARG_OF_PERICENTER": 271.7277, "MEAN_ANOMALY": 302.6397, "EPHEMERIS_TYPE": 0, "CLASSIFICATION_TYPE": "U", "NORAD_CAT_ID": 66611, "ELEMENT_SET_NO": 999, "REV_AT_EPOCH": 443, "BSTAR": -0.0019497853, "MEAN_MOTION_DOT": -0.00113315, "MEAN_MOTION_DDOT": 0}, "tle": {"line1": "1 66611U 25270Z   25346.25001157 -.00113315  00000+0 -19498-2 0  9995", "line2": "2 66611  42.9999 195.4906 0001913 271.7277 302.6397 15.50634360  4439"}}, "geometry": {"type": "Point", "coordinates": [-16.678766601221685, 23.695600825640692]}}, {"type": "Feature", "properties": {"norad_id": 66612, "name": "STARLINK-36039", "group": "last-30-days", "lat": 30.011601318989346, "lon": -26.86092152309062, "alt_km": 427.96816023873, "timestamp": "2025-12-12T22:42:11.306609+00:00", "meta": {"OBJECT_NAME": "STARLINK-36039", "OBJECT_ID": "2025-270AA", "EPOCH": "2025-12-12T06:00:00.999648", "MEAN_MOTION": 15.48039997, "ECCENTRICITY": 0.00014044, "INCLINATION": 42.9999, "RA_OF_ASC_NODE": 195.4914, "ARG_OF_PERICENTER": 259.5845, "MEAN_ANOMALY": 314.0659, "EPHEMERIS_TYPE": 0, "CLASSIFICATION_TYPE": "U", "NORAD_CAT_ID": 66612, "ELEMENT_SET_NO": 999, "REV_AT_EPOCH": 432, "BSTAR": -0.044604589, "MEAN_MOTION_DOT": -0.02120126, "MEAN_MOTION_DDOT": 0}, "tle": {"line1": "1 66612U 25270AA  25346.25001157 -.02120126  00000+0 -44605-1 0  9993", "line2": "2 66612  42.9999 195.4914 0001404 259.5845 314.0659 15.48039997  4327"}}, "geometry": {"type": "Point", "coordinates": [-26.86092152309062, 30.011601318989346]}}, {"type": "Feature", "properties": {"norad_id": 66613, "name": "STARLINK-36037", "group": "last-30-days", "lat": 23.198676541795166, "lon": -15.965237427883588, "alt_km": 420.2599427534042, "timestamp": "2025-12-12T22:42:11.306620+00:00", "meta": {"OBJECT_NAME": "STARLINK-36037", "OBJECT_ID": "2025-270AB", "EPOCH": "2025-12-12T06:00:00.999648", "MEAN_MOTION": 15.50916576, "ECCENTRICITY": 0.00016393, "INCLINATION": 42.9999, "RA_OF_ASC_NODE": 195.4806, "ARG_OF_PERICENTER": 264.4289, "MEAN_ANOMALY": 313.7378, "EPHEMERIS_TYPE": 0, "CLASSIFICATION_TYPE": "U", "NORAD_CAT_ID": 66613, "ELEMENT_SET_NO": 999, "REV_AT_EPOCH": 432, "BSTAR": -0.03880212, "MEAN_MOTION_DOT": -0.02052151, "MEAN_MOTION_DDOT": 0}, "tle": {"line1": "1 66613U 25270AB  25346.25001157 -.02052151  00000+0 -38802-1 0  9998", "line2": "2 66613  42.9999 195.4806 0001639 264.4289 313.7378 15.50916576  4329"}}, "geometry": {"type": "Point", "coordinates": [-15.965237427883588, 23.198676541795166]}}, {"type": "Feature", "properties": {"norad_id": 66614, "name": "STARLINK-36040", "group": "last-30-days", "lat": 18.945624353640902, "lon": -10.215955221429203, "alt_km": 413.1334425650484, "timestamp": "2025-12-12T22:42:11.306632+00:00", "meta": {"OBJECT_NAME": "STARLINK-36040", "OBJECT_ID": "2025-270AC", "EPOCH": "2025-12-12T06:00:00.999648", "MEAN_MOTION": 15.50623434, "ECCENTRICITY": 0.00019334, "INCLINATION": 42.9999, "RA_OF_ASC_NODE": 195.471, "ARG_OF_PERICENTER": 276.4193, "MEAN_ANOMALY": 305.6103, "EPHEMERIS_TYPE": 0, "CLASSIFICATION_TYPE": "U", "NORAD_CAT_ID": 66614, "ELEMENT_SET_NO": 999, "REV_AT_EPOCH": 416, "BSTAR": -0.0015562515, "MEAN_MOTION_DOT": -0.00090737, "MEAN_MOTION_DDOT": 0}, "tle": {"line1": "1 66614U 25270AC  25346.25001157 -.00090737  00000+0 -15563-2 0  9999", "line2": "2 66614  42.9999 195.4710 0001933 276.4193 305.6103 15.50623434  4164"}}, "geometry": {"type": "Point", "coordinates": [-10.215955221429203, 18.945624353640902]}}, {"type": "Feature", "properties": {"norad_id": 66615, "name": "STARLINK-35988", "group": "last-30-days", "lat": 20.15115149031634, "lon": -11.787093861052135, "alt_km": 412.49257046421917, "timestamp": "2025-12-12T22:42:11.306669+00:00", "meta": {"OBJECT_NAME": "STARLINK-35988", "OBJECT_ID": "2025-270AD", "EPOCH": "2025-12-12T06:00:00.999648", "MEAN_MOTION": 15.50577084, "ECCENTRICITY": 0.00017192, "INCLINATION": 42.9998, "RA_OF_ASC_NODE": 195.4758, "ARG_OF_PERICENTER": 261.4291, "MEAN_ANOMALY": 318.6959, "EPHEMERIS_TYPE": 0, "CLASSIFICATION_TYPE": "U", "NORAD_CAT_ID": 66615, "ELEMENT_SET_NO": 999, "REV_AT_EPOCH": 416, "BSTAR": -0.00048146806, "MEAN_MOTION_DOT": -0.00028483, "MEAN_MOTION_DDOT": 0}, "tle": {"line1": "1 66615U 25270AD  25346.25001157 -.00028483  00000+0 -48147-3 0  9994", "line2": "2 66615  42.9998 195.4758 0001719 261.4291 318.6959 15.50577084  4163"}}, "geometry": {"type": "Point", "coordinates": [-11.787093861052135, 20.15115149031634]}}, {"type": "Feature", "properties": {"norad_id": 66616, "name": "STARLINK-35391", "group": "last-30-days", "lat": 17.724492323732193, "lon": -8.664357108297658, "alt_km": 413.26605052630657, "timestamp": "2025-12-12T22:42:11.306680+00:00", "meta": {"OBJECT_NAME": "STARLINK-35391", "OBJECT_ID": "2025-270AE", "EPOCH": "2025-12-12T06:00:00.999648", "MEAN_MOTION": 15.50626697, "ECCENTRICITY": 0.00018859, "INCLINATION": 42.9998, "RA_OF_ASC_NODE": 195.4664, "ARG_OF_PERICENTER": 275.1143, "MEAN_ANOMALY": 308.8341, "EPHEMERIS_TYPE": 0, "CLASSIFICATION_TYPE": "U", "NORAD_CAT_ID": 66616, "ELEMENT_SET_NO": 999, "REV_AT_EPOCH": 443, "BSTAR": -0.0016693437, "MEAN_MOTION_DOT": -0.00097236, "MEAN_MOTION_DDOT": 0}, "tle": {"line1": "1 66616U 25270AE  25346.25001157 -.00097236  00000+0 -16693-2 0  9997", "line2": "2 66616  42.9998 195.4664 0001885 275.1143 308.8341 15.50626697  4433"}}, "geometry": {"type": "Point", "coordinates": [-8.664357108297658, 17.724492323732193]}}, {"type": "Feature", "properties": {"norad_id": 66617, "name": "STARLINK-35940", "group": "last-30-days", "lat": 16.1576054291877, "lon": -6.299697337384315, "alt_km": 417.69200823183473, "timestamp": "2025-12-12T22:42:11.306690+00:00", "meta": {"OBJECT_NAME": "STARLINK-35940", "OBJECT_ID": "2025-271A", "EPOCH": "2025-12-12T06:00:00.999648", "MEAN_MOTION": 15.51872519, "ECCENTRICITY": 0.0001171, "INCLINATION": 53.16, "RA_OF_ASC_NODE": 189.5799, "ARG_OF_PERICENTER": 83.6473, "MEAN_ANOMALY": 149.0606, "EPHEMERIS_TYPE": 0, "CLASSIFICATION_TYPE": "U", "NORAD_CAT_ID": 66617, "ELEMENT_SET_NO": 999, "REV_AT_EPOCH": 416, "BSTAR": -0.033913262, "MEAN_MOTION_DOT": -0.0183031, "MEAN_MOTION_DDOT": 0}, "tle": {"line1": "1 66617U 25271A   25346.25001157 -.01830310  00000+0 -33913-1 0  9991", "line2": "2 66617  53.1600 189.5799 0001171  83.6473 149.0606 15.51872519  4163"}}, "geometry": {"type": "Point", "coordinates": [-6.299697337384315, 16.1576054291877]}}]}